TRANSPORTER-12 OBJECT AZ
1 62656U 25009AZ  26068.71026235  .00016057  00000+0  54903-3 0  9991
2 62656  97.3981 151.9913 0000987  45.3581 314.7740 15.30349724 63792
STARLINK-35380          
1 65905U 25224Z   26068.16643720  .00007298  00000+0  25832-3 0  9999
2 65905  53.1623  13.8081 0001170  92.0009 268.1126 15.30197967 24748
